STARLINK-32196          
1 60430U 24144F   26068.72645044 -.00000433  00000+0 -24845-5 0  9991
2 60430  53.1607 217.0433 0001185  85.0601 275.0535 15.30184447 89317
TEVEL2-7                
1 63238U 25052AE  26068.66113295  .00019244  00000+0  69668-3 0  9998
2 63238  97.4054 324.3041 0008105 124.6830 235.5175 15.28414096 54803
